NORAD_CAT_ID,OBJECT_NAME,OBJECT_TYPE,EPOCH,MEAN_MOTION,ECCENTRICITY,INCLINATION,RA_OF_ASC_NODE,ARG_OF_PERICENTER,MEAN_ANOMALY,BSTAR,MEAN_MOTION_DOT,MEAN_MOTION_DDOT,TLE_LINE0,TLE_LINE1,TLE_LINE2,SEMIMAJOR_AXIS,PERIOD,APOGEE,PERIGEE,DECAYED
54102.0,STARLINK-5179,PAYLOAD,2023-10-22 16:19:23,15.07215889,0.000174,53.2181,275.2117,90.4934,269.6257,6.5785e-05,7.18e-06,0.0,0 STARLINK-5179,1 54102U 22136BD  23295.68013842  .00000718  00000-0  65785-4 0  9990,2 54102  53.2181 275.2117 0001740  90.4934 269.6257 15.07215889 56262,6922.849,95.54,545.919,543.51,0.0
54102.0,STARLINK-5179,PAYLOAD,2023-10-23 05:03:19,15.07204906,0.0001705,53.2177,272.8346,102.9999,257.1183,-7.889e-05,-1.484e-05,0.0,0 STARLINK-5179,1 54102U 22136BD  23296.21063668 -.00001484  00000-0 -78890-4 0  9995,2 54102  53.2177 272.8346 0001705 102.9999 257.1183 15.07204906 56342,6922.883,95.541,545.928,543.567,0.0
54102.0,STARLINK-5179,PAYLOAD,2023-10-24 08:06:37,15.07215286,0.0001524,53.2161,267.7885,99.7897,260.3267,0.00026595,3.768e-05,0.0,0 STARLINK-5179,1 54102U 22136BD  23297.33793693  .00003768  00000-0  26595-3 0  9996,2 54102  53.2161 267.7885 0001524  99.7897 260.3267 15.07215286 56516,6922.851,95.54,545.771,543.661,0.0
54102.0,STARLINK-5179,PAYLOAD,2023-10-25 06:23:29,15.07207394,0.0001612,53.2169,263.6336,99.0181,261.0993,0.00019353,2.664e-05,0.0,0 STARLINK-5179,1 54102U 22136BD  23298.26630864  .00002664  00000-0  19353-3 0  9997,2 54102  53.2169 263.6336 0001612  99.0181 261.0993 15.07207394 56657,6922.875,95.541,545.856,543.624,0.0
54102.0,STARLINK-5179,PAYLOAD,2023-10-26 06:15:49,15.07211315,0.0001512,53.2168,259.1773,94.0322,266.0842,0.00012591,1.634e-05,0.0,0 STARLINK-5179,1 54102U 22136BD  23299.26098576  .00001634  00000-0  12591-3 0  9999,2 54102  53.2168 259.1773 0001512  94.0322 266.0842 15.07211315 56333,6922.863,95.541,545.775,543.681,0.0
54102.0,STARLINK-5179,PAYLOAD,2023-10-27 04:32:39,15.0721961,0.000163,53.2171,255.0224,90.6416,269.4762,0.00040112,5.83e-05,0.0,0 STARLINK-5179,1 54102U 22136BD  23300.18935068  .00005830  00000-0  40112-3 0  9991,2 54102  53.2171 255.0224 0001630  90.6416 269.4762 15.07219610 56941,6922.838,95.54,545.831,543.574,0.0
54102.0,STARLINK-5179,PAYLOAD,2023-10-27 14:05:36,15.07211857,0.0001897,53.2167,253.2379,79.9326,280.1879,0.00020905,2.901e-05,0.0,0 STARLINK-5179,1 54102U 22136BD  23300.58722367  .00002901  00000-0  20905-3 0  9995,2 54102  53.2167 253.2379 0001897  79.9326 280.1879 15.07211857 56531,6922.861,95.541,546.04,543.413,0.0
54102.0,STARLINK-5179,PAYLOAD,2023-10-28 06:00:29,15.07206057,0.0001639,53.2172,250.2705,80.937,279.1807,9.0504e-05,1.094e-05,0.0,0 STARLINK-5179,1 54102U 22136BD  23301.25034504  .00001094  00000-0  90504-4 0  9994,2 54102  53.2172 250.2705 0001639  80.9370 279.1807 15.07206057 57101,6922.879,95.541,545.879,543.61,0.0
54102.0,STARLINK-5179,PAYLOAD,2023-10-28 13:57:56,15.07203351,0.0001527,53.2171,248.7851,85.5864,274.5302,6.5772e-05,7.18e-06,0.0,0 STARLINK-5179,1 54102U 22136BD  23301.58190609  .00000718  00000-0  65772-4 0  9990,2 54102  53.2171 248.7851 0001527  85.5864 274.5302 15.07203351 56684,6922.887,95.541,545.81,543.695,0.0
54102.0,STARLINK-5179,PAYLOAD,2023-10-29 13:50:16,15.07211138,0.0001519,53.2172,244.3291,87.8861,272.2305,0.00032199,4.622e-05,0.0,0 STARLINK-5179,1 54102U 22136BD  23302.57658313  .00004622  00000-0  32199-3 0  9995,2 54102  53.2172 244.3291 0001519  87.8861 272.2305 15.07211138 56835,6922.864,95.541,545.78,543.677,0.0
54102.0,STARLINK-5179,PAYLOAD,2023-10-29 20:12:14,15.07209807,0.0001655,53.218,243.1424,91.0528,269.0653,0.00030429,4.352e-05,0.0,0 STARLINK-5179,1 54102U 22136BD  23302.84183180  .00004352  00000-0  30429-3 0  9994,2 54102  53.2180 243.1424 0001655  91.0528 269.0653 15.07209807 57344,6922.868,95.541,545.878,543.587,0.0
54102.0,STARLINK-5179,PAYLOAD,2023-10-30 05:45:10,15.0721283,0.0001599,53.2172,241.3587,96.0015,264.1159,0.00024271,3.414e-05,0.0,0 STARLINK-5179,1 54102U 22136BD  23303.23970048  .00003414  00000-0  24271-3 0  9991,2 54102  53.2172 241.3587 0001599  96.0015 264.1159 15.07212830 56939,6922.858,95.541,545.83,543.617,0.0
54102.0,STARLINK-5179,PAYLOAD,2023-10-31 00:51:02,15.0720234,0.0001372,53.2185,237.7977,83.7515,276.3633,4.6276e-05,4.21e-06,0.0,0 STARLINK-5179,1 54102U 22136BD  23304.03544962  .00000421  00000-0  46276-4 0  9997,2 54102  53.2185 237.7977 0001372  83.7515 276.3633 15.07202340 57525,6922.891,95.541,545.705,543.806,0.0
54102.0,STARLINK-5179,PAYLOAD,2023-11-01 02:18:52,15.0721075,0.0001388,53.2164,233.0493,88.3184,271.7966,0.00022983,3.217e-05,0.0,0 STARLINK-5179,1 54102U 22136BD  23305.09643959  .00003217  00000-0  22983-3 0  9994,2 54102  53.2164 233.0493 0001388  88.3184 271.7966 15.07210750 57683,6922.865,95.541,545.691,543.769,0.0
54102.0,STARLINK-5179,PAYLOAD,2023-11-01 11:51:48,15.07207207,0.0001258,53.2168,231.2669,83.8015,276.312,0.00017353,2.359e-05,0.0,0 STARLINK-5179,1 54102U 22136BD  23305.49431116  .00002359  00000-0  17353-3 0  9999,2 54102  53.2168 231.2669 0001258  83.8015 276.3120 15.07207207 57272,6922.876,95.541,545.612,543.87,0.0
54102.0,STARLINK-5179,PAYLOAD,2023-11-01 19:49:15,15.07200144,0.0001329,53.2165,229.7826,89.1195,270.9948,1.0121e-05,-1.29e-06,0.0,0 STARLINK-5179,1 54102U 22136BD  23305.82587555 -.00000129  00000-0  10121-4 0  9996,2 54102  53.2165 229.7826 0001329  89.1195 270.9948 15.07200144 57791,6922.897,95.541,545.682,543.842,0.0
54102.0,STARLINK-5179,PAYLOAD,2023-11-01 23:00:14,15.07202748,0.0001463,53.2176,229.1868,92.6944,267.4214,8.8578e-05,1.065e-05,0.0,0 STARLINK-5179,1 54102U 22136BD  23305.95849798  .00001065  00000-0  88578-4 0  9990,2 54102  53.2176 229.1868 0001463  92.6944 267.4214 15.07202748 57343,6922.889,95.541,545.767,543.742,0.0
54102.0,STARLINK-5179,PAYLOAD,2023-11-02 02:11:12,15.07212143,0.0001406,53.2162,228.5958,99.6708,260.4443,0.00023292,3.264e-05,0.0,0 STARLINK-5179,1 54102U 22136BD  23306.09111752  .00003264  00000-0  23292-3 0  9992,2 54102  53.2162 228.5958 0001406  99.6708 260.4443 15.07212143 57834,6922.861,95.541,545.699,543.752,0.0
54102.0,STARLINK-5179,PAYLOAD,2023-11-02 11:44:08,15.07213026,0.0001309,53.2168,226.813,92.5994,267.5147,0.00021895,3.052e-05,0.0,0 STARLINK-5179,1 54102U 22136BD  23306.48898810  .00003052  00000-0  21895-3 0  9994,2 54102  53.2168 226.8130 0001309  92.5994 267.5147 15.07213026 57429,6922.858,95.541,545.629,543.817,0.0
54102.0,STARLINK-5179,PAYLOAD,2023-11-02 18:06:06,15.07206833,0.0001826,53.2166,225.6253,90.1516,269.9685,2.4842e-05,9.5e-07,0.0,0 STARLINK-5179,1 54102U 22136BD  23306.75423870  .00000095  00000-0  24842-4 0  9994,2 54102  53.2166 225.6253 0001826  90.1516 269.9685 15.07206833 57935,6922.877,95.541,546.006,543.478,0.0
54102.0,STARLINK-5179,PAYLOAD,2023-11-02 22:52:34,15.07202001,0.0001344,53.2163,224.7354,93.2914,266.8231,-3.095e-05,-7.54e-06,0.0,0 STARLINK-5179,1 54102U 22136BD  23306.95317637 -.00000754  00000-0 -30950-4 0  9990,2 54102  53.2163 224.7354 0001344  93.2914 266.8231 15.07202001 57492,6922.892,95.541,545.687,543.826,0.0
54102.0,STARLINK-5179,PAYLOAD,2023-11-03 11:36:28,15.07208098,0.0001568,53.2176,222.3562,78.6095,281.5072,8.4714e-05,1.006e-05,0.0,0 STARLINK-5179,1 54102U 22136BD  23307.48366895  .00001006  00000-0  84714-4 0  9995,2 54102  53.2176 222.3562 0001568  78.6095 281.5072 15.07208098 57574,6922.873,95.541,545.823,543.652,0.0
54102.0,STARLINK-5179,PAYLOAD,2023-11-03 17:58:28,15.07196996,0.0005925,53.2169,221.1714,80.7329,279.4333,7.4625e-05,8.51e-06,0.0,0 STARLINK-5179,1 54102U 22136BD  23307.74894124  .00000851  00000-0  74625-4 0  9992,2 54102  53.2169 221.1714 0005925  80.7329 279.4333 15.07196996 58083,6922.907,95.542,548.874,540.67,0.0
54102.0,STARLINK-5179,PAYLOAD,2023-11-03 22:44:54,15.07212746,0.0001714,53.2162,220.2826,81.4534,278.6652,0.00024758,3.488e-05,0.0,0 STARLINK-5179,1 54102U 22136BD  23307.94785400  .00003488  00000-0  24758-3 0  9990,2 54102  53.2162 220.2826 0001714  81.4534 278.6652 15.07212746 57646,6922.859,95.541,545.91,543.537,0.0
54102.0,STARLINK-5179,PAYLOAD,2023-11-04 06:00:02,15.07175537,0.0001344,53.2152,218.9287,86.7082,113.8736,0.0018482,0.00027939,0.0,0 STARLINK-5179,1 54102U 22136BD  23308.25002315  .00027939  00000-0  18482-2 0  9995,2 54102  53.2152 218.9287 0001344  86.7082 113.8736 15.07175537 58151,6922.973,95.543,545.768,543.907,0.0
54102.0,STARLINK-5179,PAYLOAD,2023-11-04 11:28:49,15.07205926,0.0001608,53.2168,217.9045,87.5814,272.5362,5.2426e-05,5.15e-06,0.0,0 STARLINK-5179,1 54102U 22136BD  23308.47835174  .00000515  00000-0  52426-4 0  9995,2 54102  53.2168 217.9045 0001608  87.5814 272.5362 15.07205926 57720,6922.88,95.541,545.858,543.631,0.0
54102.0,STARLINK-5179,PAYLOAD,2023-11-04 22:37:15,15.07206321,0.0001359,53.2169,215.826,91.786,268.3287,0.00020446,2.83e-05,0.0,0 STARLINK-5179,1 54102U 22136BD  23308.94253559  .00002830  00000-0  20446-3 0  9996,2 54102  53.2169 215.8260 0001359  91.7860 268.3287 15.07206321 57794,6922.878,95.541,545.684,543.803,0.0
54102.0,STARLINK-5179,PAYLOAD,2023-11-05 00:12:44,15.07209437,0.0001308,53.2165,215.5292,91.1221,268.9921,0.00023957,3.366e-05,0.0,0 STARLINK-5179,1 54102U 22136BD  23309.00884623  .00003366  00000-0  23957-3 0  9991,2 54102  53.2165 215.5292 0001308  91.1221 268.9921 15.07209437 58277,6922.869,95.541,545.639,543.828,0.0
54102.0,STARLINK-5179,PAYLOAD,2023-11-05 11:21:09,15.07222072,0.0001519,53.2164,213.4496,94.6436,265.4729,0.00041138,5.987e-05,0.0,0 STARLINK-5179,1 54102U 22136BD  23309.47302341  .00005987  00000-0  41138-3 0  9996,2 54102  53.2164 213.4496 0001519  94.6436 265.4729 15.07222072 57872,6922.83,95.54,545.747,543.644,0.0
54102.0,STARLINK-5179,PAYLOAD,2023-11-05 22:29:33,15.07255769,0.0001604,53.2163,211.3697,99.4196,260.6976,0.0015779,0.0002385,0.0,0 STARLINK-5179,1 54102U 22136BD  23309.93719771  .00023850  00000-0  15779-2 0  9996,2 54102  53.2163 211.3697 0001604  99.4196 260.6976 15.07255769 57940,6922.727,95.538,545.702,543.482,0.0
